{"fetched_at":"2026-07-05T17:36:12.600Z","source":"https://celestrak.org/NORAD/elements/gp.php?GROUP=spire&FORMAT=JSON","constellation":"spire","records":[{"OBJECT_NAME":"LEMUR-2-VALHALLA","OBJECT_ID":"2024-022B","EPOCH":"2026-07-05T01:47:16.107072","CLASSIFICATION_TYPE":"U","MEAN_MOTION":15.40253389,"ECCENTRICITY":0.00101763,"INCLINATION":97.4088,"RA_OF_ASC_NODE":36.2858,"ARG_OF_PERICENTER":57.3327,"MEAN_ANOMALY":302.8899,"EPHEMERIS_TYPE":0,"NORAD_CAT_ID":58900,"ELEMENT_SET_NO":999,"REV_AT_EPOCH":13502,"BSTAR":0.00066371769,"MEAN_MOTION_DOT":0.00026723,"MEAN_MOTION_DDOT":0},{"OBJECT_NAME":"LEMUR-2-CAEL","OBJECT_ID":"2024-022E","EPOCH":"2026-07-05T01:39:21.018528","CLASSIFICATION_TYPE":"U","MEAN_MOTION":15.41599611,"ECCENTRICITY":0.00081705,"INCLINATION":97.4072,"RA_OF_ASC_NODE":37.2478,"ARG_OF_PERICENTER":43.5743,"MEAN_ANOMALY":316.6148,"EPHEMERIS_TYPE":0,"NORAD_CAT_ID":58903,"ELEMENT_SET_NO":999,"REV_AT_EPOCH":13509,"BSTAR":0.00071123016,"MEAN_MOTION_DOT":0.00029939,"MEAN_MOTION_DDOT":0},{"OBJECT_NAME":"LEMUR-2-JOHNNYTRUONG","OBJECT_ID":"2024-043BA","EPOCH":"2026-07-04T09:25:47.735040","CLASSIFICATION_TYPE":"U","MEAN_MOTION":15.61818849,"ECCENTRICITY":0.00045551,"INCLINATION":97.5391,"RA_OF_ASC_NODE":338.1783,"ARG_OF_PERICENTER":124.7433,"MEAN_ANOMALY":235.4254,"EPHEMERIS_TYPE":0,"NORAD_CAT_ID":59146,"ELEMENT_SET_NO":999,"REV_AT_EPOCH":13072,"BSTAR":0.00065451893,"MEAN_MOTION_DOT":0.00056885,"MEAN_MOTION_DDOT":0},{"OBJECT_NAME":"LEMUR-2-TOMATOKECHUP","OBJECT_ID":"2024-149D","EPOCH":"2026-07-05T05:10:22.784736","CLASSIFICATION_TYPE":"U","MEAN_MOTION":15.36432698,"ECCENTRICITY":0.00028426,"INCLINATION":97.3792,"RA_OF_ASC_NODE":268.3123,"ARG_OF_PERICENTER":140.6819,"MEAN_ANOMALY":219.4632,"EPHEMERIS_TYPE":0,"NORAD_CAT_ID":60471,"ELEMENT_SET_NO":999,"REV_AT_EPOCH":10493,"BSTAR":0.00052480556,"MEAN_MOTION_DOT":0.00018596,"MEAN_MOTION_DDOT":0},{"OBJECT_NAME":"LEMUR-2-STELLA","OBJECT_ID":"2024-149BT","EPOCH":"2026-07-05T00:23:44.640096","CLASSIFICATION_TYPE":"U","MEAN_MOTION":15.12216531,"ECCENTRICITY":0.00013045,"INCLINATION":97.6731,"RA_OF_ASC_NODE":268.5536,"ARG_OF_PERICENTER":102.2938,"MEAN_ANOMALY":257.8438,"EPHEMERIS_TYPE":0,"NORAD_CAT_ID":60533,"ELEMENT_SET_NO":999,"REV_AT_EPOCH":10319,"BSTAR":0.0012267146,"MEAN_MOTION_DOT":0.00021169,"MEAN_MOTION_DDOT":0},{"OBJECT_NAME":"LEMUR-2-MARHISYAM","OBJECT_ID":"2024-149BW","EPOCH":"2026-07-04T17:43:39.771264","CLASSIFICATION_TYPE":"U","MEAN_MOTION":15.11619799,"ECCENTRICITY":0.00030549,"INCLINATION":97.6875,"RA_OF_ASC_NODE":268.7409,"ARG_OF_PERICENTER":86.6655,"MEAN_ANOMALY":273.4924,"EPHEMERIS_TYPE":0,"NORAD_CAT_ID":60536,"ELEMENT_SET_NO":999,"REV_AT_EPOCH":10313,"BSTAR":0.0010828616,"MEAN_MOTION_DOT":0.00018366,"MEAN_MOTION_DDOT":0},{"OBJECT_NAME":"LEMUR-2-AHMED-ASRAR","OBJECT_ID":"2024-149DN","EPOCH":"2026-07-05T05:14:44.556000","CLASSIFICATION_TYPE":"U","MEAN_MOTION":15.13151703,"ECCENTRICITY":0.00003391,"INCLINATION":97.6999,"RA_OF_ASC_NODE":271.3871,"ARG_OF_PERICENTER":289.1354,"MEAN_ANOMALY":70.9839,"EPHEMERIS_TYPE":0,"NORAD_CAT_ID":60576,"ELEMENT_SET_NO":999,"REV_AT_EPOCH":10329,"BSTAR":0.0012012426,"MEAN_MOTION_DOT":0.00021275,"MEAN_MOTION_DDOT":0},{"OBJECT_NAME":"LEMUR-2-LLOYD","OBJECT_ID":"2024-149DP","EPOCH":"2026-07-04T17:49:17.249664","CLASSIFICATION_TYPE":"U","MEAN_MOTION":15.09601183,"ECCENTRICITY":0.00052208,"INCLINATION":97.6742,"RA_OF_ASC_NODE":266.8843,"ARG_OF_PERICENTER":96.6367,"MEAN_ANOMALY":263.5456,"EPHEMERIS_TYPE":0,"NORAD_CAT_ID":60577,"ELEMENT_SET_NO":999,"REV_AT_EPOCH":10304,"BSTAR":0.0011641617,"MEAN_MOTION_DOT":0.00018685,"MEAN_MOTION_DDOT":0},{"OBJECT_NAME":"LEMUR-2-SQUIRRELCOMM","OBJECT_ID":"2024-149DQ","EPOCH":"2026-07-05T04:19:20.730720","CLASSIFICATION_TYPE":"U","MEAN_MOTION":15.07368905,"ECCENTRICITY":0.00050016,"INCLINATION":97.67,"RA_OF_ASC_NODE":267.0364,"ARG_OF_PERICENTER":3.1897,"MEAN_ANOMALY":356.9362,"EPHEMERIS_TYPE":0,"NORAD_CAT_ID":60578,"ELEMENT_SET_NO":999,"REV_AT_EPOCH":10311,"BSTAR":0.00075981173,"MEAN_MOTION_DOT":0.00011441,"MEAN_MOTION_DDOT":0},{"OBJECT_NAME":"LEMUR-2-SIERRINI","OBJECT_ID":"2024-149DR","EPOCH":"2026-07-05T00:43:55.276896","CLASSIFICATION_TYPE":"U","MEAN_MOTION":15.11356042,"ECCENTRICITY":0.00065328,"INCLINATION":97.6839,"RA_OF_ASC_NODE":268.7054,"ARG_OF_PERICENTER":116.5122,"MEAN_ANOMALY":243.6778,"EPHEMERIS_TYPE":0,"NORAD_CAT_ID":60579,"ELEMENT_SET_NO":999,"REV_AT_EPOCH":10315,"BSTAR":0.0012453791,"MEAN_MOTION_DOT":0.00020994,"MEAN_MOTION_DDOT":0},{"OBJECT_NAME":"LEMUR-2-WILSON","OBJECT_ID":"2025-009CP","EPOCH":"2026-07-05T03:56:06.474048","CLASSIFICATION_TYPE":"U","MEAN_MOTION":14.95249439,"ECCENTRICITY":0.0002728,"INCLINATION":97.7019,"RA_OF_ASC_NODE":264.3134,"ARG_OF_PERICENTER":10.9228,"MEAN_ANOMALY":349.2051,"EPHEMERIS_TYPE":0,"NORAD_CAT_ID":62694,"ELEMENT_SET_NO":999,"REV_AT_EPOCH":8004,"BSTAR":0.00038521239,"MEAN_MOTION_DOT":0.00004183,"MEAN_MOTION_DDOT":0},{"OBJECT_NAME":"LEMUR-2-STAR-FOX","OBJECT_ID":"2025-009CR","EPOCH":"2026-07-05T04:56:25.949760","CLASSIFICATION_TYPE":"U","MEAN_MOTION":15.0275931,"ECCENTRICITY":0.00036595,"INCLINATION":97.6931,"RA_OF_ASC_NODE":267.6866,"ARG_OF_PERICENTER":74.4899,"MEAN_ANOMALY":285.673,"EPHEMERIS_TYPE":0,"NORAD_CAT_ID":62696,"ELEMENT_SET_NO":999,"REV_AT_EPOCH":8026,"BSTAR":0.0010013711,"MEAN_MOTION_DOT":0.00013346,"MEAN_MOTION_DDOT":0},{"OBJECT_NAME":"LEMUR-2-ARIANNA","OBJECT_ID":"2025-009CU","EPOCH":"2026-07-05T03:18:20.418048","CLASSIFICATION_TYPE":"U","MEAN_MOTION":15.02755968,"ECCENTRICITY":0.00040104,"INCLINATION":97.6871,"RA_OF_ASC_NODE":267.3793,"ARG_OF_PERICENTER":79.3835,"MEAN_ANOMALY":280.7841,"EPHEMERIS_TYPE":0,"NORAD_CAT_ID":62699,"ELEMENT_SET_NO":999,"REV_AT_EPOCH":8025,"BSTAR":0.0010336363,"MEAN_MOTION_DOT":0.00013778,"MEAN_MOTION_DDOT":0},{"OBJECT_NAME":"LEMUR-2-ALISIA","OBJECT_ID":"2025-009DB","EPOCH":"2026-07-05T04:17:29.394816","CLASSIFICATION_TYPE":"U","MEAN_MOTION":15.03062515,"ECCENTRICITY":0.00032938,"INCLINATION":97.6947,"RA_OF_ASC_NODE":268.2261,"ARG_OF_PERICENTER":161.8369,"MEAN_ANOMALY":198.2974,"EPHEMERIS_TYPE":0,"NORAD_CAT_ID":62706,"ELEMENT_SET_NO":999,"REV_AT_EPOCH":10286,"BSTAR":0.0011617881,"MEAN_MOTION_DOT":0.00015623,"MEAN_MOTION_DDOT":0},{"OBJECT_NAME":"LEMUR-2-ROUNDTRIPPER","OBJECT_ID":"2025-009DG","EPOCH":"2026-07-05T04:35:02.836320","CLASSIFICATION_TYPE":"U","MEAN_MOTION":15.04109103,"ECCENTRICITY":0.0004579,"INCLINATION":97.7221,"RA_OF_ASC_NODE":268.8463,"ARG_OF_PERICENTER":87.8506,"MEAN_ANOMALY":272.3244,"EPHEMERIS_TYPE":0,"NORAD_CAT_ID":62711,"ELEMENT_SET_NO":999,"REV_AT_EPOCH":8033,"BSTAR":0.0012173763,"MEAN_MOTION_DOT":0.0001684,"MEAN_MOTION_DDOT":0},{"OBJECT_NAME":"LEMUR-2-MYNAMEISJEFF","OBJECT_ID":"2025-009DH","EPOCH":"2026-07-05T04:32:47.286816","CLASSIFICATION_TYPE":"U","MEAN_MOTION":15.04101211,"ECCENTRICITY":0.00036231,"INCLINATION":97.7271,"RA_OF_ASC_NODE":269.2366,"ARG_OF_PERICENTER":121.7558,"MEAN_ANOMALY":238.4021,"EPHEMERIS_TYPE":0,"NORAD_CAT_ID":62712,"ELEMENT_SET_NO":999,"REV_AT_EPOCH":8033,"BSTAR":0.0011984712,"MEAN_MOTION_DOT":0.00016572,"MEAN_MOTION_DDOT":0}]}
